[{"OBJECT_NAME":"TIANPING 2C","OBJECT_ID":"2022-032D","EPOCH":"2026-03-09T22:24:23.522112","MEAN_MOTION":15.10225163,"ECCENTRICITY":0.00079422,"INCLINATION":97.5961,"RA_OF_ASC_NODE":122.1196,"ARG_OF_PERICENTER":128.8925,"MEAN_ANOMALY":231.3013,"EPHEMERIS_TYPE":0,"CLASSIFICATION_TYPE":"U","NORAD_CAT_ID":52156,"ELEMENT_SET_NO":999,"REV_AT_EPOCH":21586,"BSTAR":0.00036090623,"MEAN_MOTION_DOT":5.841e-5,"MEAN_MOTION_DDOT":0},{"OBJECT_NAME":"STARLINK-4493","OBJECT_ID":"2022-101G","EPOCH":"2026-03-09T08:01:20.631648","MEAN_MOTION":15.08839706,"ECCENTRICITY":0.00013603,"INCLINATION":53.2173,"RA_OF_ASC_NODE":75.7032,"ARG_OF_PERICENTER":91.0301,"MEAN_ANOMALY":269.0847,"EPHEMERIS_TYPE":0,"CLASSIFICATION_TYPE":"U","NORAD_CAT_ID":53533,"ELEMENT_SET_NO":999,"REV_AT_EPOCH":19611,"BSTAR":3.2983862e-5,"MEAN_MOTION_DOT":2.37e-6,"MEAN_MOTION_DDOT":0}]
